[Satellite]
VERSION=1.1
NAME=ITUPSAT 1
NICKNAME=ITUPSAT 1
TLE1=1 35935U 09051E   19316.90451556  .00000073  00000-0  27875-4 0  9998
TLE2=2 35935  98.6119 129.3614 0009225  86.1339 274.0912 14.55566034538027
STATUS=0
